HAWK-A                  
1 43765U 18099H   26068.67628545  .00008617  00000+0  36104-3 0  9995
2 43765  97.4051 122.2425 0034260 275.5523  84.1807 15.23231043397949
STARLINK-36460          
1 67432U 26005AE  26068.50692564  .00037717  00000+0  13729-2 0  9992
2 67432  42.9953 239.4247 0000719 264.3929  95.6841 15.27585471  8656
